{
  "type": "FeatureCollection",
  "features": [
    {
      "type": "Feature",
      "properties": {},
      "geometry": {
        "coordinates": [
          [
            [
              145.388444635292,
              -37.426328749838426
            ],
            [
              145.388444635292,
              -37.607260476631765
            ],
            [
              145.82812418328984,
              -37.607260476631765
            ],
            [
              145.82812418328984,
              -37.426328749838426
            ],
            [
              145.388444635292,
              -37.426328749838426
            ]
          ]
        ],
        "type": "Polygon"
      }
    }
  ]
}
